[
    {
        "Altitude(m)": 610405.3496116542,
        "Argument of Periapsis(deg)": 0.0,
        "Eccentricity": 0.0,
        "Inclination(deg)": 60.0,
        "Latitude(deg)": 52.11134490309564,
        "Longitude(deg)": 87.47740572243232,
        "Mean Anomaly(deg)": 114.5455,
        "RAAN(deg)": 55.00000000000001,
        "Satellite Name": "Test1 249",
        "Satellite Number": 249,
        "Semi-Major Axis(m)": 6980739.136638005,
        "Time(s)": 0
    },
    {
        "Altitude(m)": 610321.9227174908,
        "Argument of Periapsis(deg)": 0.00010418945913296404,
        "Eccentricity": 0.0,
        "Inclination(deg)": 60.0,
        "Latitude(deg)": 51.74606000634979,
        "Longitude(deg)": 88.24630095191,
        "Mean Anomaly(deg)": 115.16560614546184,
        "RAAN(deg)": 54.999579950860266,
        "Satellite Name": "Test1 249",
        "Satellite Number": 249,
        "Semi-Major Axis(m)": 6980739.136638005,
        "Time(s)": 10
    }
]